STARLINK-2540           
1 48290U 21036Q   24283.26111242  .00006443  00000+0  45142-3 0  9998
2 48290  53.0534 239.9598 0001597 120.1945 239.9202 15.06368444191058
STARLINK-2555           
1 48291U 21036R   24283.25742600  .00022245  00000+0  15081-2 0  9992
2 48291  53.0538 239.9732 0001450  81.1387 278.9767 15.06386703191054
STARLINK-2542           
1 48292U 21036S   24283.20214847  .00025875  00000+0  17504-2 0  9999
2 48292  53.0533 240.3877 0001531  77.6863 282.4297 15.06383244190464
STARLINK-2550           
1 48293U 21036T   24283.58178446  .00007321  00000+0  50995-3 0  9993
2 48293  53.0539 238.5200 0001432  95.4394 264.6758 15.06391298190526
STARLINK-2533           
1 48294U 21036U   24283.57810259  .00039153  00000+0  26346-2 0  9998
2 48294  53.0543 238.5353 0000588 122.0054 238.0993 15.06375543190523
STARLINK-2535           
1 48295U 21036V   24283.57441757  .00012752  00000+0  87324-3 0  9992
2 48295  53.0525 238.5539 0001313 124.9786 235.1327 15.06407229190526
STARLINK-2546           
1 48296U 21036W   24283.57070949  .00010823  00000+0  74443-3 0  9999
2 48296  53.0539 238.5677 0001228  96.7959 263.3169 15.06395652190521
STARLINK-2559           
1 48298U 21036Y   24283.29797864  .00049173  00000+0  32986-2 0  9997
2 48298  53.0539 239.7882 0001358  81.5539 278.5603 15.06383335190485
STARLINK-2557           
1 48299U 21036Z   24283.29427595  .00040302  00000+0  27131-2 0  9990
2 48299  53.0539 239.8050 0001258 116.4817 243.6301 15.06345678190486
STARLINK-2538           
1 48300U 21036AA  24283.28598599 -.00009861  00000+0 -64492-3 0  9994
2 48300  53.0551 249.8492 0001676 113.3518 246.7648 15.06346086190349
STARLINK-2537           
1 48301U 21036AB  24283.21592922  .00028749  00000+0  19425-2 0  9991
2 48301  53.0533 250.1611 0001274  87.9243 272.1892 15.06372654190909
STARLINK-2556           
1 48302U 21036AC  24283.27859818 -.00005215  00000+0 -33160-3 0  9996
2 48302  53.0547 249.8779 0001419  81.2269 278.8881 15.06381087190339
STARLINK-2530           
1 48303U 21036AD  24283.32660214  .00031535  00000+0  21300-2 0  9997
2 48303  53.0537 250.2042 0001128  74.1187 285.9926 15.06339307190332
STARLINK-2524           
1 48304U 21036AE  24283.33759232  .00001080  00000+0  91438-4 0  9991
2 48304  53.0543 249.6128 0000891  76.2981 283.8107 15.06359922190342
STARLINK-2519           
1 48305U 21036AF  24283.32290210  .00031234  00000+0  21079-2 0  9993
2 48305  53.0538 250.2548 0001580 105.6700 254.4464 15.06374789190330
STARLINK-2523           
1 48306U 21036AG  24283.33020213  .00013953  00000+0  95349-3 0  9999
2 48306  53.0542 249.6451 0001570 105.5782 254.5381 15.06410320190341
STARLINK-2517           
1 48309U 21036AK  24283.18645901 -.00008828  00000+0 -57520-3 0  9998
2 48309  53.0537 250.2881 0001312  87.5752 272.5387 15.06354017190327
STARLINK-2536           
1 48310U 21036AL  24283.18277518  .00021427  00000+0  14550-2 0  9998
2 48310  53.0532 250.3036 0001207  80.4274 279.6851 15.06349512190329
STARLINK-2534           
1 48311U 21036AM  24283.31178601  .00031012  00000+0  20945-2 0  9993
2 48311  53.0533 249.7254 0000994  83.9332 276.1770 15.06350105190344
STARLINK-2061           
1 48312U 21036AN  24283.30809312  .00024481  00000+0  16579-2 0  9993
2 48312  53.0541 249.7431 0001231  97.0561 263.0568 15.06373520190342
STARLINK-2541           
1 48313U 21036AP  24283.56979579 -.00000093  00000+0  12687-4 0  9997
2 48313  53.0527 248.5681 0001582  89.8374 270.2796 15.06369856190374
STARLINK-2549           
1 48314U 21036AQ  24283.23438290  .00021440  00000+0  14560-2 0  9990
2 48314  53.0537 250.0763 0001014  70.6834 289.4265 15.06345222190974
STARLINK-2506           
1 48315U 21036AR  24283.29704692  .00028059  00000+0  18979-2 0  9990
2 48315  53.0533 249.7950 0001236  63.5487 296.5629 15.06345124190339
STARLINK-2507           
1 48316U 21036AS  24283.29335865  .00005786  00000+0  40720-3 0  9995
2 48316  53.0535 249.8143 0001543 103.6671 256.4490 15.06380885190333
STARLINK-2513           
1 48317U 21036AT  24283.28967637  .00025409  00000+0  17218-2 0  9992
2 48317  53.0530 249.8304 0001262  75.6129 284.5000 15.06329991190332
STARLINK-2509           
1 48318U 21036AU  24283.34770805  .00003551  00000+0  25725-3 0  9996
2 48318  53.0538 259.5629 0001289  99.9239 260.1896 15.06387210190206
STARLINK-2512           
1 48319U 21036AV  24283.21038245 -.00001958  00000+0 -11257-3 0  9994
2 48319  53.0546 260.1681 0002121 101.6832 258.4395 15.06390294190185
STARLINK-2029           
1 48320U 21036AW  24283.34034222  .00027303  00000+0  18462-2 0  9995
2 48320  53.0536 259.6023 0001090  80.9116 279.1997 15.06370582190206
STARLINK-2457           
1 48321U 21036AX  24283.33665700  .00026017  00000+0  17599-2 0  9997
2 48321  53.0538 259.6166 0001389  78.6584 281.4560 15.06382498190202
STARLINK-2477           
1 48322U 21036AY  24283.33296878  .00007180  00000+0  50042-3 0  9995
2 48322  53.0535 259.6337 0001076  83.5486 276.5625 15.06398896190205
