OBJECT_NAME,OBJECT_ID,EPOCH,MEAN_MOTION,ECCENTRICITY,INCLINATION,RA_OF_ASC_NODE,ARG_OF_PERICENTER,MEAN_ANOMALY,EPHEMERIS_TYPE,CLASSIFICATION_TYPE,NORAD_CAT_ID,ELEMENT_SET_NO,REV_AT_EPOCH,BSTAR,MEAN_MOTION_DOT,MEAN_MOTION_DDOT
STARLINK-2540,2021-036Q,2024-10-09T06:16:00.113088,15.06368444,0.0001597,53.0534,239.9598,120.1945,239.9202,0,U,48290,999,19105,4.5142E-04,6.443E-05,0
STARLINK-2555,2021-036R,2024-10-09T06:10:41.606400,15.06386703,0.000145,53.0538,239.9732,81.1387,278.9767,0,U,48291,999,19105,1.5081E-03,2.2245E-04,0
STARLINK-2542,2021-036S,2024-10-09T04:51:05.627808,15.06383244,0.0001531,53.0533,240.3877,77.6863,282.4297,0,U,48292,999,19046,1.7504E-03,2.5875E-04,0
STARLINK-2550,2021-036T,2024-10-09T13:57:46.177344,15.06391298,0.0001432,53.0539,238.5200,95.4394,264.6758,0,U,48293,999,19052,5.0995E-04,7.321E-05,0
STARLINK-2533,2021-036U,2024-10-09T13:52:28.063776,15.06375543,0.0000588,53.0543,238.5353,122.0054,238.0993,0,U,48294,999,19052,2.6346E-03,3.9153E-04,0
STARLINK-2535,2021-036V,2024-10-09T13:47:09.678048,15.06407229,0.0001313,53.0525,238.5539,124.9786,235.1327,0,U,48295,999,19052,8.7324E-04,1.2752E-04,0
STARLINK-2546,2021-036W,2024-10-09T13:41:49.299936,15.06395652,0.0001228,53.0539,238.5677,96.7959,263.3169,0,U,48296,999,19052,7.4443E-04,1.0823E-04,0
STARLINK-2559,2021-036Y,2024-10-09T07:09:05.354496,15.06383335,0.0001358,53.0539,239.7882,81.5539,278.5603,0,U,48298,999,19048,3.2986E-03,4.9173E-04,0
STARLINK-2557,2021-036Z,2024-10-09T07:03:45.442080,15.06345678,0.0001258,53.0539,239.8050,116.4817,243.6301,0,U,48299,999,19048,2.7131E-03,4.0302E-04,0
STARLINK-2538,2021-036AA,2024-10-09T06:51:49.189536,15.06346086,0.0001676,53.0551,249.8492,113.3518,246.7648,0,U,48300,999,19034,-6.4492E-04,-9.861E-05,0
STARLINK-2537,2021-036AB,2024-10-09T05:10:56.284608,15.06372654,0.0001274,53.0533,250.1611,87.9243,272.1892,0,U,48301,999,19090,1.9425E-03,2.8749E-04,0
STARLINK-2556,2021-036AC,2024-10-09T06:41:10.882752,15.06381087,0.0001419,53.0547,249.8779,81.2269,278.8881,0,U,48302,999,19033,-3.316E-04,-5.215E-05,0
STARLINK-2530,2021-036AD,2024-10-09T07:50:18.424896,15.06339307,0.0001128,53.0537,250.2042,74.1187,285.9926,0,U,48303,999,19033,2.13E-03,3.1535E-04,0
STARLINK-2524,2021-036AE,2024-10-09T08:06:07.976448,15.06359922,0.0000891,53.0543,249.6128,76.2981,283.8107,0,U,48304,999,19034,9.1438E-05,1.08E-05,0
STARLINK-2519,2021-036AF,2024-10-09T07:44:58.741440,15.06374789,0.000158,53.0538,250.2548,105.6700,254.4464,0,U,48305,999,19033,2.1079E-03,3.1234E-04,0
STARLINK-2523,2021-036AG,2024-10-09T07:55:29.464032,15.06410320,0.000157,53.0542,249.6451,105.5782,254.5381,0,U,48306,999,19034,9.5349E-04,1.3953E-04,0
STARLINK-2517,2021-036AK,2024-10-09T04:28:30.058464,15.06354017,0.0001312,53.0537,250.2881,87.5752,272.5387,0,U,48309,999,19032,-5.752E-04,-8.828E-05,0
STARLINK-2536,2021-036AL,2024-10-09T04:23:11.775552,15.06349512,0.0001207,53.0532,250.3036,80.4274,279.6851,0,U,48310,999,19032,1.455E-03,2.1427E-04,0
STARLINK-2534,2021-036AM,2024-10-09T07:28:58.311264,15.06350105,0.0000994,53.0533,249.7254,83.9332,276.1770,0,U,48311,999,19034,2.0945E-03,3.1012E-04,0
STARLINK-2061,2021-036AN,2024-10-09T07:23:39.245568,15.06373520,0.0001231,53.0541,249.7431,97.0561,263.0568,0,U,48312,999,19034,1.6579E-03,2.4481E-04,0
STARLINK-2541,2021-036AP,2024-10-09T13:40:30.356256,15.06369856,0.0001582,53.0527,248.5681,89.8374,270.2796,0,U,48313,999,19037,1.2687E-05,-9.3E-07,0
STARLINK-2549,2021-036AQ,2024-10-09T05:37:30.682560,15.06345222,0.0001014,53.0537,250.0763,70.6834,289.4265,0,U,48314,999,19097,1.456E-03,2.144E-04,0
STARLINK-2506,2021-036AR,2024-10-09T07:07:44.853888,15.06345124,0.0001236,53.0533,249.7950,63.5487,296.5629,0,U,48315,999,19033,1.8979E-03,2.8059E-04,0
STARLINK-2507,2021-036AS,2024-10-09T07:02:26.187360,15.06380885,0.0001543,53.0535,249.8143,103.6671,256.4490,0,U,48316,999,19033,4.072E-04,5.786E-05,0
STARLINK-2513,2021-036AT,2024-10-09T06:57:08.038368,15.06329991,0.0001262,53.0530,249.8304,75.6129,284.5000,0,U,48317,999,19033,1.7218E-03,2.5409E-04,0
STARLINK-2509,2021-036AU,2024-10-09T08:20:41.975520,15.06387210,0.0001289,53.0538,259.5629,99.9239,260.1896,0,U,48318,999,19020,2.5725E-04,3.551E-05,0
STARLINK-2512,2021-036AV,2024-10-09T05:02:57.043680,15.06390294,0.0002121,53.0546,260.1681,101.6832,258.4395,0,U,48319,999,19018,-1.1257E-04,-1.958E-05,0
STARLINK-2029,2021-036AW,2024-10-09T08:10:05.567808,15.06370582,0.000109,53.0536,259.6023,80.9116,279.1997,0,U,48320,999,19020,1.8462E-03,2.7303E-04,0
STARLINK-2457,2021-036AX,2024-10-09T08:04:47.164800,15.06382498,0.0001389,53.0538,259.6166,78.6584,281.4560,0,U,48321,999,19020,1.7599E-03,2.6017E-04,0
STARLINK-2477,2021-036AY,2024-10-09T07:59:28.502592,15.06398896,0.0001076,53.0535,259.6337,83.5486,276.5625,0,U,48322,999,19020,5.0042E-04,7.18E-05,0
